[
  "FORMOSAT-2 (ROCSAT 2)   \r\n1 28254U 04018A   26171.41174916 -.00000204  00000+0 -10700-3 0  9992\r\n2 28254  98.8460 138.7962 0001447 350.2195 169.8953 14.01261125129203\r\n",
  "PACE                    \r\n1 40022U 14033N   26170.97739336  .00003939  00000+0  24113-3 0  9999\r\n2 40022  98.1236 176.0178 0005823 193.8768 166.2301 15.10844030653457\r\n",
  "FORMOSAT-5              \r\n1 42920U 17049A   26171.43210432  .00000097  00000+0  35731-4 0  9992\r\n2 42920  98.2254 246.6698 0012638  75.3872 284.8723 14.50899817467140\r\n",
  "FORMOSAT 7-3            \r\n1 44343U 19036E   26171.35603525  .00003062  00000+0  16373-3 0  9996\r\n2 44343  23.9975 156.7294 0000452 341.4981  18.5506 15.09815118383727\r\n",
  "FORMOSAT 7-1            \r\n1 44349U 19036L   26170.71402264  .00002196  00000+0  16266-3 0  9996\r\n2 44349  23.9991  15.3581 0000595 182.6782 177.3716 14.96514586385035\r\n",
  "FORMOSAT 7-4            \r\n1 44350U 19036M   26171.40328196  .00001995  00000+0  14538-3 0  9992\r\n2 44350  23.9983  72.8155 0000954 218.3528 141.6905 14.96508321384557\r\n",
  "FORMOSAT 7-2            \r\n1 44351U 19036N   26171.15891346  .00001948  00000+0  14134-3 0  9997\r\n2 44351  23.9971 128.7788 0000518 194.5435 165.5051 14.96508024384036\r\n",
  "FORMOSAT 7-6            \r\n1 44353U 19036Q   26171.42535958  .00002196  00000+0  16258-3 0  9998\r\n2 44353  23.9989 307.8006 0001335 121.5447 238.5184 14.96523355382301\r\n",
  "FORMOSAT 7-5            \r\n1 44358U 19036V   26171.40260039  .00001886  00000+0  13598-3 0  9995\r\n2 44358  23.9977 246.7047 0000343 145.3181 214.7342 14.96527982382836\r\n",
  "FORMOSAT-7R (TRITON)    \r\n1 58017U 23155B   26171.19193850  .00001130  00000+0  11962-3 0  9996\r\n2 58017  97.8356 252.5643 0002548  85.2460 274.9049 14.91125044146672\r\n",
  "NIGHTJAR                \r\n1 60535U 24149BV  26171.19599356  .00001896  00000+0  16118-3 0  9996\r\n2 60535  97.6834 247.8615 0000947  83.6034 276.5297 14.99028220143323\r\n",
  "IRIS-F3                 \r\n1 62619U 25009L   26171.20064477  .00004897  00000+0  18717-3 0  9991\r\n2 62619  97.4043 252.0177 0005223 323.0020  37.0858 15.27068574 79281\r\n",
  "IRIS-F2                 \r\n1 62684U 25009CD  26171.47770914  .00011834  00000+0  45248-3 0  9990\r\n2 62684  97.3891 251.2230 0004474 352.5910   7.5262 15.26738497136963\r\n",
  "FORMOSAT-8A             \r\n1 66666U 25276A   26171.20630524  .00001172  00000+0  96828-4 0  9998\r\n2 66666  97.6546 245.4062 0002663 247.3893 112.7050 15.00860579 30511\r\n",
  "LILIUM-2                \r\n1 66679U 25276P   26171.46961799  .00002354  00000+0  11910-3 0  9992\r\n2 66679  97.4151 244.4477 0005997  11.4694 348.6675 15.17982734 30896\r\n",
  "FLOCK 4H-5              \r\n1 66708U 25276AU  26171.46396779  .00004305  00000+0  19937-3 0  9990\r\n2 66708  97.4173 245.1175 0000993  75.1485 284.9860 15.20633080 30936\r\n",
  "BLACK KITE-1            \r\n1 66741U 25276CD  26171.46832456  .00006548  00000+0  30158-3 0  9993\r\n2 66741  97.4239 245.1440 0004888 353.9946   6.1230 15.20620031 28223\r\n",
  "T.MICROSAT-1            \r\n1 66766U 25276DE  26170.70799388  .00004443  00000+0  20446-3 0  9993\r\n2 66766  97.4158 244.3965 0001864 119.9555 240.1866 15.20835352 30828\r\n",
  "LILIUM-3                \r\n1 66770U 25276DJ  26171.18799198  .00001746  00000+0  85406-4 0  9991\r\n2 66770  97.4246 244.8971 0000976 185.3723 174.7502 15.19518712 30881\r\n",
  "T.MICROSAT-2            \r\n1 68433U 26067T   26171.42380403  .00004548  00000+0  23062-3 0  9992\r\n2 68433  97.4571 129.7476 0007414  60.8272 299.3702 15.17420167 12421\r\n",
  "PARUS-6U1               \r\n1 68456U 26067AS  26171.35349334  .00004924  00000+0  24855-3 0  9996\r\n2 68456  97.4554 129.6681 0007294  63.6865 296.5117 15.17545160 12418\r\n",
  "BLACK KITE-2            \r\n1 68474U 26067BL  26171.43244306  .00002036  00000+0  20333-3 0  9997\r\n2 68474  97.7550 129.6729 0001092 180.6629 179.4589 14.92594451 12217\r\n",
  "PEARL-1B                \r\n1 68980U 26100A   26171.26602436  .00001617  00000+0  17086-3 0  9995\r\n2 68980  97.7363  68.5764 0008375 128.8817 231.3149 14.90573753  7141\r\n",
  "PEARL-1A                \r\n1 68990U 26100L   26171.18530158  .00001352  00000+0  14237-3 0  9999\r\n2 68990  97.7310  68.5036 0006093 140.1113 220.0554 14.90982234  7140\r\n"
]